HST                     
1 20580U 90037B   23340.04729344  .00005011  00000+0  25049-3 0  9998
2 20580  28.4675 203.0446 0002803  78.4367  40.8361 15.15123365647535
